STARLINK-30895          
1 58418U 23180S   26139.93964766  .00003719  00000+0  14462-3 0  9990
2 58418  43.0035  10.0907 0001459 250.7822 109.2872 15.27576306138413
STARLINK-30917          
1 58419U 23180T   26139.74432793  .00001002  00000+0  45937-4 0  9995
2 58419  43.0038 262.4807 0001570 268.6256  91.4416 15.27577587139769
STARLINK-30899          
1 58420U 23180U   26139.92165319  .00000815  00000+0  39147-4 0  9991
2 58420  43.0029   9.9547 0001164 274.7811  85.2908 15.27580408138403
STARLINK-30902          
1 58421U 23180V   26139.94221177  .00003004  00000+0  11862-3 0  9995
2 58421  43.0052  10.1045 0001473 276.4750  83.5934 15.27583186138418
STARLINK-30912          
1 58422U 23180W   26140.26111660  .00003326  00000+0  13035-3 0  9999
2 58422  43.0002 226.0984 0001585 260.9064  99.1608 15.27579858140240
STARLINK-30900          
1 58423U 23180X   26139.93577354  .00009635  00000+0  35903-3 0  9995
2 58423  43.0032  10.0077 0001554 273.3293  86.7381 15.27595731138410
STARLINK-30908          
1 58424U 23180Y   26139.93834012  .00002015  00000+0  82743-4 0  9993
2 58424  43.0071   9.9843 0001239 284.3011  75.7703 15.27575247138520
CHUANGXIN 20A (CX-20A)  
1 58425U 23181A   26140.27261917 -.00000102  00000+0  46873-4 0  9992
2 58425  49.9592  69.0808 0012884 182.9597 177.1205 13.41494755122000
CHUANGXIN 20B (CX-20B)  
1 58426U 23181B   26140.28045807 -.00000100  00000+0  50865-4 0  9996
2 58426  49.9590  69.1099 0010898 186.6492 173.4242 13.41487871121998
CHUANGXIN 20C (CX-20C)  
1 58427U 23181C   26140.27762873 -.00000101  00000+0  48336-4 0  9996
2 58427  49.9590  69.0961 0011070 174.0300 186.0711 13.41481795122001
COSMOS 2572             
1 58435U 23182A   26139.73897031  .00075154  38709-5  25247-3 0  9997
2 58435  96.6774 244.2696 0009203 195.4390 164.6606 15.90105041143939
STARLINK-30869          
1 58437U 23183A   26140.28975251  .00003360  00000+0  13154-3 0  9994
2 58437  42.9988 357.3503 0001408 263.7483  96.3208 15.27582936137682
STARLINK-30969          
1 58438U 23183B   26140.28589589 -.00002817  00000+0 -92860-4 0  9990
2 58438  42.9990 357.3219 0001115 280.0949  79.9777 15.27586044137686
STARLINK-30951          
1 58439U 23183C   26140.29360416  .00000529  00000+0  28729-4 0  9997
2 58439  42.9993 357.3782 0001115 274.6757  85.3967 15.27581795137681
STARLINK-30950          
1 58440U 23183D   26139.76802562  .00000007  00000+0  97749-5 0  9992
2 58440  42.9974 163.7128 0001133 270.7209  89.3513 15.27570431139907
STARLINK-30942          
1 58441U 23183E   26139.92426995  .00003098  00000+0  12209-3 0  9992
2 58441  43.0047 358.9077 0001126 269.0383  91.0340 15.27574575137637
STARLINK-30959          
1 58442U 23183F   26139.99993347  .00001043  00000+0  47425-4 0  9997
2 58442  43.0065 358.6172 0001465 287.1139  72.9552 15.27583135137643
STARLINK-30971          
1 58443U 23183G   26139.91928622  .00021790  00000+0  79809-3 0  9995
2 58443  43.0027 359.7193 0001589 249.8943 110.1738 15.27617677137620
STARLINK-30963          
1 58444U 23183H   26139.93840757  .00007643  00000+0  28691-3 0  9994
2 58444  43.0047 359.0073 0001504 286.7558  73.3129 15.27589849137636
STARLINK-30961          
1 58445U 23183J   26139.94226332  .00007316  00000+0  27551-3 0  9994
2 58445  43.0061 359.0333 0001366 262.9804  97.0893 15.27534235137638
STARLINK-30975          
1 58446U 23183K   26139.94096909  .00003880  00000+0  15045-3 0  9997
2 58446  43.0054 359.0198 0001393 289.0454  71.0247 15.27581412137657
STARLINK-30976          
1 58447U 23183L   26139.95382937  .00003317  00000+0  13001-3 0  9993
2 58447  43.0009 359.1528 0001572 258.0542 102.0133 15.27580319137631
STARLINK-30926          
1 58448U 23183M   26139.92684148  .00007942  00000+0  29810-3 0  9993
2 58448  43.0042 358.8831 0001467 283.9212  76.1476 15.27548155137639
STARLINK-30943          
1 58449U 23183N   26140.23129868  .00004483  00000+0  17230-3 0  9993
2 58449  43.0020 331.7243 0001076 283.6565  76.4166 15.27589475137973
STARLINK-30946          
1 58450U 23183P   26139.95511166  .00002082  00000+0  85164-4 0  9993
2 58450  43.0017 359.1314 0000914 247.7809 112.2946 15.27572659137630
STARLINK-30944          
1 58451U 23183Q   26139.94610365  .00031828  00000+0  11596-2 0  9990
2 58451  43.0016 359.0678 0001980 263.9407  96.1219 15.27623432137606
STARLINK-30928          
1 58452U 23183R   26139.88460226  .00001690  00000+0  70954-4 0  9992
2 58452  43.0010 359.4644 0001827 255.0045 105.0604 15.27560877137610
STARLINK-30957          
1 58453U 23183S   26139.94483469  .00011088  00000+0  41190-3 0  9995
2 58453  43.0052 359.0534 0001498 250.1832 109.8858 15.27576054137634
STARLINK-30966          
1 58454U 23183T   26139.88329935  .00000964  00000+0  44559-4 0  9990
2 58454  43.0036 359.4525 0001471 257.5613 102.5074 15.27582847137626
STARLINK-30935          
1 58455U 23183U   26139.91156885  .00002865  00000+0  11357-3 0  9998
2 58455  43.0047 359.6589 0001020 263.3939  96.6797 15.27581702137621
