OBJECT_NAME,OBJECT_ID,EPOCH,MEAN_MOTION,ECCENTRICITY,INCLINATION,RA_OF_ASC_NODE,ARG_OF_PERICENTER,MEAN_ANOMALY,EPHEMERIS_TYPE,CLASSIFICATION_TYPE,NORAD_CAT_ID,ELEMENT_SET_NO,REV_AT_EPOCH,BSTAR,MEAN_MOTION_DOT,MEAN_MOTION_DDOT
STARLINK-30895,2023-180S,2026-05-19T22:33:05.557824,15.27576306,.0001459,43.0035,10.0907,250.7822,109.2872,0,U,58418,999,13841,.14462E-3,.3719E-4,0
STARLINK-30917,2023-180T,2026-05-19T17:51:49.933152,15.27577587,.00015701,43.0038,262.4807,268.6256,91.4416,0,U,58419,999,13976,.45936551E-4,.1002E-4,0
STARLINK-30899,2023-180U,2026-05-19T22:07:10.835616,15.27580408,.0001164,43.0029,9.9547,274.7811,85.2908,0,U,58420,999,13840,.39147E-4,.815E-5,0
STARLINK-30902,2023-180V,2026-05-19T22:36:47.096928,15.27583186,.0001473,43.0052,10.1045,276.4750,83.5934,0,U,58421,999,13841,.11862E-3,.3004E-4,0
STARLINK-30912,2023-180W,2026-05-20T06:16:00.474240,15.27579858,.00015853,43.0002,226.0984,260.9064,99.1608,0,U,58422,999,14024,.1303495E-3,.3326E-4,0
STARLINK-30900,2023-180X,2026-05-19T22:27:30.833856,15.27595731,.0001554,43.0032,10.0077,273.3293,86.7381,0,U,58423,999,13841,.35903E-3,.9635E-4,0
STARLINK-30908,2023-180Y,2026-05-19T22:31:12.586368,15.27575247,.0001239,43.0071,9.9843,284.3011,75.7703,0,U,58424,999,13852,.82743E-4,.2015E-4,0
CHUANGXIN 20A (CX-20A),2023-181A,2026-05-20T06:32:34.296288,13.41494755,.00128841,49.9592,69.0808,182.9597,177.1205,0,U,58425,999,12200,.46872582E-4,-.102E-5,0
CHUANGXIN 20B (CX-20B),2023-181B,2026-05-20T06:43:51.577248,13.41487871,.00108983,49.9590,69.1099,186.6492,173.4242,0,U,58426,999,12199,.50865416E-4,-.1E-5,0
CHUANGXIN 20C (CX-20C),2023-181C,2026-05-20T06:39:47.122272,13.41481795,.00110704,49.9590,69.0961,174.0300,186.0711,0,U,58427,999,12200,.48335602E-4,-.101E-5,0
COSMOS 2572,2023-182A,2026-05-19T17:44:07.034784,15.90105041,.0009203,96.6774,244.2696,195.4390,164.6606,0,U,58435,999,14393,.25247104E-3,.75154E-3,.3870918E-5
STARLINK-30869,2023-183A,2026-05-20T06:57:14.616864,15.27582936,.0001408,42.9988,357.3503,263.7483,96.3208,0,U,58437,999,13768,.13153915E-3,.336E-4,0
STARLINK-30969,2023-183B,2026-05-20T06:51:41.404896,15.27586044,.0001115,42.9990,357.3219,280.0949,79.9777,0,U,58438,999,13768,-.92860398E-4,-.2817E-4,0
STARLINK-30951,2023-183C,2026-05-20T07:02:47.399424,15.27581795,.00011158,42.9993,357.3782,274.6757,85.3967,0,U,58439,999,13768,.28729162E-4,.529E-5,0
STARLINK-30950,2023-183D,2026-05-19T18:25:57.413568,15.27570431,.00011336,42.9974,163.7128,270.7209,89.3513,0,U,58440,999,13990,.9774859E-5,.7E-7,0
STARLINK-30942,2023-183E,2026-05-19T22:10:56.923680,15.27574575,.00011263,43.0047,358.9077,269.0383,91.0340,0,U,58441,999,13763,.12209232E-3,.3098E-4,0
STARLINK-30959,2023-183F,2026-05-19T23:59:54.251808,15.27583135,.00014659,43.0065,358.6172,287.1139,72.9552,0,U,58442,999,13764,.4742459E-4,.1043E-4,0
STARLINK-30971,2023-183G,2026-05-19T22:03:46.329408,15.27617677,.00015897,43.0027,359.7193,249.8943,110.1738,0,U,58443,999,13762,.79808745E-3,.2179E-3,0
STARLINK-30963,2023-183H,2026-05-19T22:31:18.414048,15.27589849,.00015042,43.0047,359.0073,286.7558,73.3129,0,U,58444,999,13763,.28690781E-3,.7643E-4,0
STARLINK-30961,2023-183J,2026-05-19T22:36:51.550848,15.27534235,.00013666,43.0061,359.0333,262.9804,97.0893,0,U,58445,999,13763,.27551167E-3,.7316E-4,0
STARLINK-30975,2023-183K,2026-05-19T22:34:59.729376,15.27581412,.00013931,43.0054,359.0198,289.0454,71.0247,0,U,58446,999,13765,.15045001E-3,.388E-4,0
STARLINK-30976,2023-183L,2026-05-19T22:53:30.857568,15.27580319,.00015728,43.0009,359.1528,258.0542,102.0133,0,U,58447,999,13763,.13001481E-3,.3317E-4,0
STARLINK-30926,2023-183M,2026-05-19T22:14:39.103872,15.27548155,.00014677,43.0042,358.8831,283.9212,76.1476,0,U,58448,999,13763,.298103E-3,.7942E-4,0
STARLINK-30943,2023-183N,2026-05-20T05:33:04.205952,15.27589475,.00010766,43.0020,331.7243,283.6565,76.4166,0,U,58449,999,13797,.17229894E-3,.4483E-4,0
STARLINK-30946,2023-183P,2026-05-19T22:55:21.647424,15.27572659,.00009145,43.0017,359.1314,247.7809,112.2946,0,U,58450,999,13763,.85164116E-4,.2082E-4,0
STARLINK-30944,2023-183Q,2026-05-19T22:42:23.355360,15.27623432,.00019805,43.0016,359.0678,263.9407,96.1219,0,U,58451,999,13760,.11596067E-2,.31828E-3,0
STARLINK-30928,2023-183R,2026-05-19T21:13:49.635264,15.27560877,.0001827,43.0010,359.4644,255.0045,105.0604,0,U,58452,999,13761,.70953915E-4,.169E-4,0
STARLINK-30957,2023-183S,2026-05-19T22:40:33.717216,15.27576054,.00014989,43.0052,359.0534,250.1832,109.8858,0,U,58453,999,13763,.41189921E-3,.11088E-3,0
STARLINK-30966,2023-183T,2026-05-19T21:11:57.063840,15.27582847,.00014714,43.0036,359.4525,257.5613,102.5074,0,U,58454,999,13762,.44559366E-4,.964E-5,0
STARLINK-30935,2023-183U,2026-05-19T21:52:39.548640,15.27581702,.000102,43.0047,359.6589,263.3939,96.6797,0,U,58455,999,13762,.11357E-3,.2865E-4,0
